H1 CPF 01  gfz 2021 01 26 01  5261 terrasarx 
H2 0702601  6201 31698    2021 01 26 00 59 42 2021 01 31 00 00 42   120 1 1  0 0 0
H9
10 0 59241  33102.000000  0    1372539.101   -196468.741   6736930.139
10 0 59241  33222.000000  0    1945862.254   -888442.704   6537495.904
10 0 59241  33342.000000  0    2473173.705  -1574544.823   6223171.919
10 0 59241  33462.000000  0    2945474.215  -2241909.704   5799449.359
10 0 59241  33582.000000  0    3354940.143  -2877842.453   5273740.084
10 0 59241  33702.000000  0    3695056.380  -3470062.057   4655253.092
10 0 59241  33822.000000  0    3960724.310  -4006942.180   3954838.718
10 0 59241  33942.000000  0    4148342.120  -4477744.358   3184801.645
10 0 59241  34062.000000  0    4255855.099  -4872838.363   2358685.839
10 0 59241  34182.000000  0    4282775.144  -5183904.215   1491034.075
10 0 59241  34302.000000  0    4230167.852  -5404110.391    597126.728
10 0 59241  34422.000000  0    4100607.177  -5528263.166   -307294.410
10 0 59241  34542.000000  0    3898100.687  -5552924.920  -1206310.950
10 0 59241  34662.000000  0    3627984.549  -5476497.241  -2084117.889
10 0 59241  34782.000000  0    3296792.297  -5299265.641  -2925308.622
10 0 59241  34902.000000  0    2912101.613  -5023406.707  -3715151.058
10 0 59241  35022.000000  0    2482361.626  -4652957.053  -4439847.750
10 0 59241  35142.000000  0    2016706.293  -4193745.965  -5086774.846
10 0 59241  35262.000000  0    1524759.923  -3653293.516  -5644695.483
10 0 59241  35382.000000  0    1016439.177  -3040679.016  -6103945.299
10 0 59241  35502.000000  0     501754.397  -2366382.803  -6456589.399
10 0 59241  35622.000000  0      -9385.409  -1642103.080  -6696548.622
10 0 59241  35742.000000  0    -507359.322   -880551.858  -6819693.866
10 0 59241  35862.000000  0    -983010.394    -95233.947  -6823909.243
10 0 59241  35982.000000  0   -1427809.853    699787.534  -6709123.646
10 0 59241  36102.000000  0   -1834006.564   1490136.369  -6477311.470
10 0 59241  36222.000000  0   -2194758.876   2261376.806  -6132462.139
10 0 59241  36342.000000  0   -2504248.991   2999271.465  -5680519.974
10 0 59241  36462.000000  0   -2757777.390   3690041.806  -5129292.126
10 0 59241  36582.000000  0   -2951836.225   4320626.039  -4488325.673
10 0 59241  36702.000000  0   -3084160.007   4878930.190  -3768752.332
10 0 59241  36822.000000  0   -3153750.835   5354065.270  -2983102.882
10 0 59241  36942.000000  0   -3160878.615   5736566.426  -2145096.482
10 0 59241  37062.000000  0   -3107056.632   6018591.536  -1269404.658
10 0 59241  37182.000000  0   -2994989.856   6194090.450   -371392.489
10 0 59241  37302.000000  0   -2828499.796   6258940.184    533154.001
10 0 59241  37422.000000  0   -2612427.160   6211046.075   1428313.550
10 0 59241  37542.000000  0   -2352510.050   6050399.125   2298321.608
10 0 59241  37662.000000  0   -2055244.172   5779089.315   3127856.910
10 0 59241  37782.000000  0   -1727729.814   5401277.376   3902317.750
10 0 59241  37902.000000  0   -1377509.084   4923125.891   4608083.550
10 0 59241  38022.000000  0   -1012396.601   4352690.848   5232756.883
10 0 59241  38142.000000  0    -640307.229   3699776.646   5765379.835
10 0 59241  38262.000000  0    -269087.698   2975759.267   6196622.629
10 0 59241  38382.000000  0      93646.566   2193380.212   6518941.391
10 0 59241  38502.000000  0     440665.413   1366517.880   6726703.932
10 0 59241  38622.000000  0     765266.516    509937.997   6816282.622
10 0 59241  38742.000000  0    1061403.294   -360970.153   6786112.702
10 0 59241  38862.000000  0    1323796.641  -1230469.089   6636719.063
10 0 59241  38982.000000  0    1548029.027  -2082757.109   6370707.972
10 0 59241  39102.000000  0    1730619.226  -2902255.331   5992725.165
10 0 59241  39222.000000  0    1869076.614  -3673894.337   5509379.543
10 0 59241  39342.000000  0    1961933.829  -4383394.389   4929132.589
10 0 59241  39462.000000  0    2008757.982  -5017533.514   4262156.048
10 0 59241  39582.000000  0    2010140.991  -5564401.954   3520159.515
10 0 59241  39702.000000  0    1967666.661  -6013635.395   2716186.031
10 0 59241  39822.000000  0    1883855.333  -6356619.565   1864381.838
10 0 59241  39942.000000  0    1762089.756  -6586662.970    979744.870
10 0 59241  40062.000000  0    1606521.607  -6699134.265     77855.342
10 0 59241  40182.000000  0    1421961.154  -6691560.457   -825406.374
10 0 59241  40302.000000  0    1213752.199  -6563680.163  -1714151.237
10 0 59241  40422.000000  0     987635.871  -6317449.168  -2572769.213
10 0 59241  40542.000000  0     749608.384  -5957002.697  -3386209.364
10 0 59241  40662.000000  0     505777.363  -5488575.211  -4140246.703
10 0 59241  40782.000000  0     262217.366  -4920379.987  -4821730.605
10 0 59241  40902.000000  0      24829.546  -4262452.475  -5418809.206
10 0 59241  41022.000000  0    -200791.161  -3526462.292  -5921127.975
10 0 59241  41142.000000  0    -409478.682  -2725497.495  -6319999.112
10 0 59241  41262.000000  0    -596605.926  -1873826.769  -6608540.444
10 0 59241  41382.000000  0    -758180.714   -986644.219  -6781782.905
10 0 59241  41502.000000  0    -890925.882    -79800.961  -6836747.667
10 0 59241  41622.000000  0    -992342.291    830473.301  -6772490.883
10 0 59241  41742.000000  0   -1060754.358   1727853.060  -6590117.580
10 0 59241  41862.000000  0   -1095337.330   2596202.356  -6292764.502
10 0 59241  41982.000000  0   -1096125.796   3419858.706  -5885553.379
10 0 59241  42102.000000  0   -1064003.797   4183913.428  -5375512.155
10 0 59241  42222.000000  0   -1000675.867   4874481.852  -4771464.825
10 0 59241  42342.000000  0    -908620.220   5478960.771  -4083890.151
10 0 59241  42462.000000  0    -791024.166   5986266.563  -3324749.000
10 0 59241  42582.000000  0    -651702.684   6387048.382  -2507283.630
10 0 59241  42702.000000  0    -495001.706   6673872.895  -1645791.244
10 0 59241  42822.000000  0    -325688.594   6841374.371   -755374.191
10 0 59241  42942.000000  0    -148831.432   6886366.212    148327.590
10 0 59241  43062.000000  0      30329.734   6807910.481   1049417.620
10 0 59241  43182.000000  0     206515.832   6607342.108   1932031.966
10 0 59241  43302.000000  0     374541.909   6288245.175   2780628.019
10 0 59241  43422.000000  0     529447.445   5856384.515   3580264.962
10 0 59241  43542.000000  0     666621.581   5319595.970   4316871.892
10 0 59241  43662.000000  0     781919.876   4687637.407   4977502.463
10 0 59241  43782.000000  0     871767.437   3971995.577   5550562.597
10 0 59241  43902.000000  0     933249.868   3185669.326   6026008.542
10 0 59241  44022.000000  0     964187.747   2342925.791   6395518.906
10 0 59241  44142.000000  0     963192.880   1459035.573   6652634.482
10 0 59241  44262.000000  0     929706.555    549992.021   6792865.151
10 0 59241  44382.000000  0     864018.849   -367778.652   6813762.382
10 0 59241  44502.000000  0     767268.407  -1277712.888   6714960.526
10 0 59241  44622.000000  0     641422.622  -2163408.739   6498183.389
10 0 59241  44742.000000  0     489238.393  -3008921.597   6167216.667
10 0 59241  44862.000000  0     314204.153  -3799053.434   5727844.483
10 0 59241  44982.000000  0     120464.907  -4519626.751   5187752.033
10 0 59241  45102.000000  0     -87268.255  -5157742.467   4556398.739
10 0 59241  45222.000000  0    -303823.685  -5702019.886   3844860.020
10 0 59241  45342.000000  0    -523688.697  -6142810.286   3065635.792
10 0 59241  45462.000000  0    -741139.326  -6472378.150   2232431.358
10 0 59241  45582.000000  0    -950376.186  -6685045.575   1359914.046
10 0 59241  45702.000000  0   -1145665.199  -6777299.437    463450.896
10 0 59241  45822.000000  0   -1321479.485  -6747854.013   -441171.321
10 0 59241  45942.000000  0   -1472636.381  -6597667.114  -1338033.396
10 0 59241  46062.000000  0   -1594427.344  -6329911.487  -2211372.121
10 0 59241  46182.000000  0   -1682738.083  -5949902.714  -3045864.269
10 0 59241  46302.000000  0   -1734155.857  -5464984.814  -3826900.687
10 0 59241  46422.000000  0   -1746060.775  -4884376.379  -4540843.578
10 0 59241  46542.000000  0   -1716699.023  -4218983.111  -5175261.255
10 0 59241  46662.000000  0   -1645237.205  -3481182.830  -5719137.725
10 0 59241  46782.000000  0   -1531796.695  -2684587.568  -6163055.133
10 0 59241  46902.000000  0   -1377467.363  -1843787.021  -6499346.468
10 0 59241  47022.000000  0   -1184301.039   -974079.579  -6722216.093
10 0 59241  47142.000000  0    -955285.603    -91196.279  -6827829.253
10 0 59241  47262.000000  0    -694299.262    788978.658  -6814370.327
10 0 59241  47382.000000  0    -406045.494   1650686.194  -6682070.198
10 0 59241  47502.000000  0     -95971.082   2478567.155  -6433202.630
10 0 59241  47622.000000  0     229832.925   3257930.213  -6072051.188
10 0 59241  47742.000000  0     564747.465   3975010.602  -5604843.804
10 0 59241  47862.000000  0     901755.081   4617212.804  -5039654.891
10 0 59241  47982.000000  0    1233581.512   5173335.784  -4386277.888
10 0 59241  48102.000000  0    1552847.674   5633776.466  -3656065.938
10 0 59241  48222.000000  0    1852228.385   5990705.190  -2861742.965
10 0 59241  48342.000000  0    2124614.549   6238210.610  -2017188.031
10 0 59241  48462.000000  0    2363275.457   6372409.941  -1137194.600
10 0 59241  48582.000000  0    2562016.785   6391519.743   -237208.622
10 0 59241  48702.000000  0    2715330.080   6295884.553    666948.252
10 0 59241  48822.000000  0    2818529.697   6087962.927   1559363.894
10 0 59241  48942.000000  0    2867873.685   5772271.502   2424323.832
10 0 59241  49062.000000  0    2860665.890   5355287.928   3246596.074
10 0 59241  49182.000000  0    2795336.687   4845314.761   4011706.558
10 0 59241  49302.000000  0    2671500.067   4252308.792   4706199.950
10 0 59241  49422.000000  0    2489983.139   3587676.583   5317879.778
10 0 59241  49542.000000  0    2252830.616   2864045.889   5836018.874
99
